COSMOS 2251 DEB         
1 34672U 93036XS  17345.14773359  .00000097  00000-0  44748-4 0  9999
2 34672  74.0363 255.2358 0026517 317.5771 115.7887 14.33089850458295
